{
    "links": {
        "self": "http://www.neowsapp.com/rest/v1/neo/3398063?api_key=iIulBulltgU6a56xZRHN4H3l9WmuAYTsLGpBGhQ2"
    },
    "id": "3398063",
    "neo_reference_id": "3398063",
    "name": "(2007 XT23)",
    "designation": "2007 XT23",
    "nasa_jpl_url": "http://ssd.jpl.nasa.gov/sbdb.cgi?sstr=3398063",
    "absolute_magnitude_h": 22.6,
    "estimated_diameter": {
        "kilometers": {
            "estimated_diameter_min": 0.0802703167,
            "estimated_diameter_max": 0.1794898848
        },
        "meters": {
            "estimated_diameter_min": 80.2703167283,
            "estimated_diameter_max": 179.4898847799
        },
        "miles": {
            "estimated_diameter_min": 0.049877647,
            "estimated_diameter_max": 0.1115298092
        },
        "feet": {
            "estimated_diameter_min": 263.3540659348,
            "estimated_diameter_max": 588.8775935812
        }
    },
    "is_potentially_hazardous_asteroid": false,
    "close_approach_data": [
        {
            "close_approach_date": "2007-12-05",
            "close_approach_date_full": "2007-Dec-05 18:22",
            "epoch_date_close_approach": 1196878920000,
            "relative_velocity": {
                "kilometers_per_second": "12.8781767455",
                "kilometers_per_hour": "46361.4362836866",
                "miles_per_hour": "28807.1935619385"
            },
            "miss_distance": {
                "astronomical": "0.1339541415",
                "lunar": "52.1081610435",
                "kilometers": "20039254.246078605",
                "miles": "12451815.190170549"
            },
            "orbiting_body": "Earth"
        }
    ],
    "orbital_data": {
        "orbit_id": "8",
        "orbit_determination_date": "2017-04-06 09:04:55",
        "first_observation_date": "2007-12-15",
        "last_observation_date": "2007-12-25",
        "data_arc_in_days": 10,
        "observations_used": 24,
        "orbit_uncertainty": "8",
        "minimum_orbit_intersection": ".121262",
        "jupiter_tisserand_invariant": "2.970",
        "epoch_osculation": "2454450.5",
        "eccentricity": ".6144211105722953",
        "semi_major_axis": "2.788629746934076",
        "inclination": "17.13369923415949",
        "ascending_node_longitude": "78.98885167234913",
        "orbital_period": "1700.923222389573",
        "perihelion_distance": "1.075236760847902",
        "perihelion_argument": "332.2507631758627",
        "aphelion_distance": "4.50202273302025",
        "perihelion_time": "2454423.672803576957",
        "mean_anomaly": "5.677969813785924",
        "mean_motion": ".2116497648225693",
        "equinox": "J2000",
        "orbit_class": {
            "orbit_class_type": "AMO",
            "orbit_class_description": "Near-Earth asteroid orbits similar to that of 1221 Amor",
            "orbit_class_range": "1.017 AU < q (perihelion) < 1.3 AU"
        }
    },
    "is_sentry_object": false
}